STARLINK-1775           
1 46681U 20073M   25259.19507015  .00000709  00000+0  66498-4 0  9990
2 46681  53.0548 319.9561 0001195  90.6404 269.4722 15.06405265270617
STARLINK-1781           
1 46685U 20073R   25259.15824406  .00003333  00000+0  24252-3 0  9993
2 46685  53.0547 320.3887 0001408  93.4224 266.6926 15.06402757270602
STARLINK-1784           
1 46687U 20073T   25258.76889425  .00002996  00000+0  21990-3 0  9993
2 46687  53.0542 286.8694 0001136  83.2754 276.8364 15.06402847271042
STARLINK-1788           
1 46689U 20073V   25259.18777321  .00002930  00000+0  21547-3 0  9999
2 46689  53.0562 320.6450 0001215  92.5914 267.5214 15.06409524271851
STARLINK-1789           
1 46690U 20073W   25259.25002315  .01198556  00000+0  56571-1 0  9997
2 46690  53.0549 294.5528 0001416  90.2252 306.8074 15.15965242  5845
STARLINK-1790           
1 46691U 20073X   25258.85919466 -.00000140  00000+0  94887-5 0  9994
2 46691  53.0546 306.4653 0001228  89.1984 270.9146 15.06393690270774
STARLINK-1795           
1 46696U 20073AC  25258.77256865  .00002199  00000+0  16646-3 0  9997
2 46696  53.0539 286.8531 0001018  72.1966 287.9134 15.06403234271048
STARLINK-1797           
1 46698U 20073AE  25259.15044606  .00000776  00000+0  70968-4 0  9997
2 46698  53.0539 305.7367 0001917  98.9301 261.1906 15.06407440270813
STARLINK-1799           
1 46699U 20073AF  25258.43530733  .00002137  00000+0  16229-3 0  9991
2 46699  53.0548 308.3661 0001211  82.3489 277.7637 15.06401522270719
STARLINK-1800           
1 46700U 20073AG  25259.16928475 -.00004340  00000+0 -27284-3 0  9992
2 46700  53.0556 320.0685 0001049  89.8850 270.2260 15.06373298270618
STARLINK-1801           
1 46701U 20073AH  25258.87024504  .00001078  00000+0  91258-4 0  9996
2 46701  53.0551 306.4134 0001346  85.4827 274.6316 15.06401547270784
STARLINK-1802           
1 46702U 20073AJ  25258.81680211  .00003102  00000+0  22704-3 0  9993
2 46702  53.0520 286.6522 0001273  88.7236 271.3899 15.06405272271050
STARLINK-1805           
1 46705U 20073AM  25258.90757519 -.00000582  00000+0 -20208-4 0  9991
2 46705  53.0562 321.2452 0001234  87.1014 273.0117 15.06396176270571
STARLINK-1807           
1 46706U 20073AN  25259.14953749  .00029389  00000+0  18137-2 0  9992
2 46706  53.0530 304.4890 0004838 332.6629  27.4106 15.09692017270833
STARLINK-1810           
1 46709U 20073AR  25258.48369866 -.00000760  00000+0 -32099-4 0  9991
2 46709  53.0560 323.2764 0001419  95.5098 264.6052 15.06399689270500
STARLINK-1814           
1 46712U 20073AU  25258.85183042  .00000268  00000+0  36873-4 0  9991
2 46712  53.0528 306.6225 0001170  94.3797 265.7326 15.06399539270771
STARLINK-1815           
1 46713U 20073AV  25258.85087688 -.00000654  00000+0 -24995-4 0  9994
2 46713  53.0542 306.4927 0001142  86.6692 273.4427 15.06393954270775
STARLINK-1816           
1 46714U 20073AW  25258.84075978  .00000266  00000+0  36730-4 0  9990
2 46714  53.0548 306.5462 0001096  82.9325 277.1788 15.06403796270774
STARLINK-1817           
1 46715U 20073AX  25258.83707833  .00000368  00000+0  43627-4 0  9998
2 46715  53.0554 306.5653 0001375  91.8155 268.2992 15.06395016270777
STARLINK-1820           
1 46717U 20073AZ  25259.05996507  .00081020  00000+0  26819-2 0  9999
2 46717  53.0579 285.3985 0007751  17.2246 342.9016 15.30605694271091
STARLINK-1821           
1 46718U 20073BA  25259.15300472  .00014702  00000+0  73415-3 0  9999
2 46718  53.0508 315.1654 0003954 306.0300  54.0327 15.17710786270684
STARLINK-1826           
1 46723U 20073BF  25259.08080766  .00000900  00000+0  79295-4 0  9996
2 46723  53.0543 280.4666 0001178  86.0112 274.1011 15.06403659271163
STARLINK-1828           
1 46725U 20073BH  25259.15083858  .00001961  00000+0  15049-3 0  9995
2 46725  53.0550 320.1536 0001335  97.7985 262.3156 15.06403654270616
STARLINK-1830           
1 46727U 20073BK  25258.33624981  .00003773  00000+0  27198-3 0  9995
2 46727  53.0537 283.8111 0001268  89.0408 271.0726 15.06405678271053
STARLINK-1848           
1 46740U 20074B   25258.64890494  .00139226  00000+0  37626-2 0  9998
2 46740  53.0538  27.0140 0005647 279.6842  80.3522 15.36736860270296
STARLINK-1892           
1 46743U 20074E   25258.63803109  .00000797  00000+0  72378-4 0  9992
2 46743  53.0554  27.4574 0001432  95.5955 264.5197 15.06404040270293
STARLINK-1894           
1 46744U 20074F   25259.08038032  .00001184  00000+0  98359-4 0  9996
2 46744  53.0557  25.7425 0001168  88.4105 271.7018 15.06397869270356
STARLINK-1905           
1 46746U 20074H   25259.06929611  .00002139  00000+0  16246-3 0  9993
2 46746  53.0575  25.5199 0001155  96.8262 263.2858 15.06400153270356
STARLINK-1911           
1 46749U 20074L   25259.06560488  .00001265  00000+0  10380-3 0  9991
2 46749  53.0573  25.5356 0001136  94.1344 265.9775 15.06395756270352
STARLINK-1922           
1 46753U 20074Q   25258.64171190  .00002078  00000+0  15828-3 0  9992
2 46753  53.0568  27.4416 0001142  88.4463 271.6657 15.06408930270299
STARLINK-1928           
1 46758U 20074V   25258.63572907  .00001217  00000+0  10062-3 0  9996
2 46758  53.0556  32.4683 0001162  87.2650 272.8472 15.06393012270225
STARLINK-1903           
1 46764U 20074AB  25258.45235460  .00198041  00000+0  17453-2 0  9995
2 46764  53.0239 324.2876 0005924  22.7278 337.3999 15.67582568271164
STARLINK-1832           
1 46780U 20074AT  25258.60946868  .00000514  00000+0  53413-4 0  9996
2 46780  53.0565  17.5839 0001079  90.9031 269.2082 15.06395323270424
STARLINK-1835           
1 46782U 20074AV  25259.06286266 -.00002621  00000+0 -15723-3 0  9992
2 46782  53.0583  15.5471 0001134  91.4099 268.7020 15.06374370270490
STARLINK-1882           
1 46784U 20074AX  25259.03706671  .00000615  00000+0  60177-4 0  9991
2 46784  53.0578  15.8947 0001208  91.9143 268.1984 15.06396642270482
STARLINK-1893           
1 46786U 20074AZ  25259.24529119  .00000304  00000+0  39260-4 0  9990
2 46786  53.0560 354.7277 0001162  81.3752 278.7369 15.06402480270802
STARLINK-1931           
1 46790U 20074BD  25259.08405015  .00013312  00000+0  91204-3 0  9993
2 46790  53.0572  25.4535 0001544 106.5461 253.5698 15.06352709270354
STARLINK-1934           
1 46792U 20074BF  25259.05915338  .00000099  00000+0  25529-4 0  9992
2 46792  53.0575  15.5670 0001225  84.5676 275.5452 15.06397187270494
STARLINK-1942           
1 46794U 20074BH  25258.63066150  .00000614  00000+0  60110-4 0  9994
2 46794  53.0551  27.4872 0001256  87.9865 272.1268 15.06396945270294
STARLINK-1944           
1 46796U 20074BK  25258.60578118 -.00000707  00000+0 -28612-4 0  9991
2 46796  53.0565  17.6014 0000967  82.0891 278.0208 15.06399149270426
STARLINK-1777           
1 47122U 20088A   25259.25542163 -.00000632  00000+0 -23537-4 0  9991
2 47122  53.0572   4.6834 0001453 126.9358 233.1764 15.06404114265546
STARLINK-1812           
1 47126U 20088E   25258.61775950  .00000726  00000+0  67595-4 0  9990
2 47126  53.0565   7.5439 0001006  77.6881 282.4221 15.06399228265456
STARLINK-1843           
1 47133U 20088M   25259.26002535  .00000730  00000+0  67900-4 0  9997
2 47133  53.0576 354.6638 0001310  83.8981 276.2157 15.06409688265687
STARLINK-1845           
1 47135U 20088P   25258.58918934 -.00000750  00000+0 -31505-4 0  9998
2 47135  53.0560 357.6775 0001134  91.4903 268.6216 15.06394968265584
STARLINK-1856           
1 47143U 20088X   25259.25637081  .00010847  00000+0  74629-3 0  9992
2 47143  53.0550 354.6781 0000936 106.0714 254.0378 15.06383055265682
STARLINK-1863           
1 47150U 20088AE  25259.25002315  .00204009  00000+0  17247-2 0  9993
2 47150  53.0458 312.2527 0016192 325.6024 294.7504 15.68440794  6002
STARLINK-1871           
1 47157U 20088AM  25259.29228316 -.00000153  00000+0  86146-5 0  9997
2 47157  53.0564   4.5198 0001028  78.4334 281.6770 15.06406064265552
STARLINK-1873           
1 47158U 20088AN  25258.58550840  .00000790  00000+0  71909-4 0  9995
2 47158  53.0575 357.6961 0001444 106.2361 253.8788 15.06400194265588
STARLINK-1876           
1 47161U 20088AR  25258.55233007  .00001807  00000+0  14017-3 0  9995
2 47161  53.0557 357.8389 0001196  94.3772 265.7354 15.06403975265586
STARLINK-1888           
1 47171U 20088BB  25259.29319268 -.00005021  00000+0 -31848-3 0  9997
2 47171  53.0554 354.5165 0001254  88.7646 271.3486 15.06392616265692
STARLINK-1912           
1 47178U 20088BJ  25259.25911758 -.00001574  00000+0 -86839-4 0  9992
2 47178  53.0557   4.6673 0001351  90.2329 269.8815 15.06390802265540
STARLINK-1913           
1 47179U 20088BK  25259.04808869  .00000016  00000+0  19975-4 0  9993
2 47179  53.0562  15.6131 0000872  89.0110 271.0979 15.06401988265374
STARLINK-2017           
1 47351U 21005C   25258.95592947  .00003293  00000+0  23990-3 0  9992
2 47351  53.0542  86.0172 0001341  92.1360 267.9783 15.06392951257260
STARLINK-2034           
1 47352U 21005D   25259.04164593  .00005583  00000+0  39325-3 0  9999
2 47352  53.0534 125.6453 0001432  90.7809 269.3344 15.06414567256713
STARLINK-2045           
1 47353U 21005E   25259.19599054 -.00000792  00000+0 -34292-4 0  9998
2 47353  53.0551  69.9476 0001359  90.1841 269.9304 15.06396976257510
STARLINK-2046           
1 47354U 21005F   25259.26057419  .00000659  00000+0  63134-4 0  9998
2 47354  53.0548  90.2040 0001496  89.6960 270.4201 15.06395414257236
STARLINK-2047           
1 47355U 21005G   25259.23055107  .00001153  00000+0  96308-4 0  9997
2 47355  53.0543  74.7965 0001252  90.9303 269.1830 15.06401819257444
STARLINK-2049           
1 47356U 21005H   25258.81219288  .00001830  00000+0  14170-3 0  9991
2 47356  53.0544  96.6758 0001309  96.1092 264.0046 15.06399213257105
STARLINK-2050           
1 47357U 21005J   25258.92742822  .00002436  00000+0  18235-3 0  9998
2 47357  53.0542 126.5822 0001414  89.9488 270.1663 15.06411512256698
